CCSDS_OMM_VERS = 2.0
CREATION_DATE  = 
ORIGINATOR     = 

OBJECT_NAME    = RSP-03
OBJECT_ID      = 1998-067XL
CENTER_NAME    = EARTH
REF_FRAME      = TEME
TIME_SYSTEM    = UTC
MEAN_ELEMENT_THEORY = SGP/SGP4

EPOCH          = 2026-02-09T15:49:38.856864
MEAN_MOTION    = 16.04479219
ECCENTRICITY   = .00078079
INCLINATION    = 51.6146
RA_OF_ASC_NODE = 190.8360
ARG_OF_PERICENTER = 307.6496
MEAN_ANOMALY   = 52.3806

EPHEMERIS_TYPE = 0
CLASSIFICATION_TYPE = U
NORAD_CAT_ID   = 65732
ELEMENT_SET_NO = 999
REV_AT_EPOCH   = 2248
BSTAR          = .1447047E-2
MEAN_MOTION_DOT = .986718E-2
MEAN_MOTION_DDOT = .52171041E-3

CCSDS_OMM_VERS = 2.0
CREATION_DATE  = 
ORIGINATOR     = 

OBJECT_NAME    = YOTSUBA-KULOVER
OBJECT_ID      = 1998-067XN
CENTER_NAME    = EARTH
REF_FRAME      = TEME
TIME_SYSTEM    = UTC
MEAN_ELEMENT_THEORY = SGP/SGP4

EPOCH          = 2026-02-09T19:03:47.774880
MEAN_MOTION    = 15.71186037
ECCENTRICITY   = .00041399
INCLINATION    = 51.6244
RA_OF_ASC_NODE = 200.8737
ARG_OF_PERICENTER = 266.2769
MEAN_ANOMALY   = 93.7756

EPHEMERIS_TYPE = 0
CLASSIFICATION_TYPE = U
NORAD_CAT_ID   = 65941
ELEMENT_SET_NO = 999
REV_AT_EPOCH   = 1910
BSTAR          = .10125499E-2
MEAN_MOTION_DOT = .132212E-2
MEAN_MOTION_DDOT = 0

CCSDS_OMM_VERS = 2.0
CREATION_DATE  = 
ORIGINATOR     = 

OBJECT_NAME    = BOTAN
OBJECT_ID      = 1998-067XP
CENTER_NAME    = EARTH
REF_FRAME      = TEME
TIME_SYSTEM    = UTC
MEAN_ELEMENT_THEORY = SGP/SGP4

EPOCH          = 2026-02-09T15:50:14.106336
MEAN_MOTION    = 15.85179997
ECCENTRICITY   = .00064461
INCLINATION    = 51.6174
RA_OF_ASC_NODE = 197.6749
ARG_OF_PERICENTER = 289.8323
MEAN_ANOMALY   = 70.1986

EPHEMERIS_TYPE = 0
CLASSIFICATION_TYPE = U
NORAD_CAT_ID   = 65942
ELEMENT_SET_NO = 999
REV_AT_EPOCH   = 1913
BSTAR          = .13980573E-2
MEAN_MOTION_DOT = .352215E-2
MEAN_MOTION_DDOT = 0

CCSDS_OMM_VERS = 2.0
CREATION_DATE  = 
ORIGINATOR     = 

OBJECT_NAME    = E-KAGAKU-1
OBJECT_ID      = 1998-067XQ
CENTER_NAME    = EARTH
REF_FRAME      = TEME
TIME_SYSTEM    = UTC
MEAN_ELEMENT_THEORY = SGP/SGP4

EPOCH          = 2026-02-09T11:27:04.026816
MEAN_MOTION    = 15.70999257
ECCENTRICITY   = .0003685
INCLINATION    = 51.6272
RA_OF_ASC_NODE = 202.5184
ARG_OF_PERICENTER = 280.4332
MEAN_ANOMALY   = 79.6250

EPHEMERIS_TYPE = 0
CLASSIFICATION_TYPE = U
NORAD_CAT_ID   = 65943
ELEMENT_SET_NO = 999
REV_AT_EPOCH   = 1905
BSTAR          = .10797182E-2
MEAN_MOTION_DOT = .140038E-2
MEAN_MOTION_DDOT = 0

CCSDS_OMM_VERS = 2.0
CREATION_DATE  = 
ORIGINATOR     = 

OBJECT_NAME    = HRC MONOBLOCK CAMERA
OBJECT_ID      = 1998-067XR
CENTER_NAME    = EARTH
REF_FRAME      = TEME
TIME_SYSTEM    = UTC
MEAN_ELEMENT_THEORY = SGP/SGP4

EPOCH          = 2026-02-09T17:14:21.115680
MEAN_MOTION    = 15.59309115
ECCENTRICITY   = .00012346
INCLINATION    = 51.6276
RA_OF_ASC_NODE = 206.3794
ARG_OF_PERICENTER = 357.5196
MEAN_ANOMALY   = 2.5791

EPHEMERIS_TYPE = 0
CLASSIFICATION_TYPE = U
NORAD_CAT_ID   = 66052
ELEMENT_SET_NO = 999
REV_AT_EPOCH   = 1802
BSTAR          = .59664469E-3
MEAN_MOTION_DOT = .47675E-3
MEAN_MOTION_DDOT = 0

CCSDS_OMM_VERS = 2.0
CREATION_DATE  = 
ORIGINATOR     = 

OBJECT_NAME    = HTV-X1
OBJECT_ID      = 2025-241A
CENTER_NAME    = EARTH
REF_FRAME      = TEME
TIME_SYSTEM    = UTC
MEAN_ELEMENT_THEORY = SGP/SGP4

EPOCH          = 2026-02-09T19:49:39.868896
MEAN_MOTION    = 15.48509326
ECCENTRICITY   = .00111004
INCLINATION    = 51.6312
RA_OF_ASC_NODE = 210.0960
ARG_OF_PERICENTER = 81.8534
MEAN_ANOMALY   = 278.3713

EPHEMERIS_TYPE = 0
CLASSIFICATION_TYPE = U
NORAD_CAT_ID   = 66174
ELEMENT_SET_NO = 999
REV_AT_EPOCH   = 51
BSTAR          = .17726444E-3
MEAN_MOTION_DOT = .9178E-4
MEAN_MOTION_DDOT = 0

CCSDS_OMM_VERS = 2.0
CREATION_DATE  = 
ORIGINATOR     = 

OBJECT_NAME    = SZ-21 MODULE
OBJECT_ID      = 2025-246C
CENTER_NAME    = EARTH
REF_FRAME      = TEME
TIME_SYSTEM    = UTC
MEAN_ELEMENT_THEORY = SGP/SGP4

EPOCH          = 2026-02-09T06:34:48.565344
MEAN_MOTION    = 15.66393879
ECCENTRICITY   = .0002766
INCLINATION    = 41.4766
RA_OF_ASC_NODE = 17.9863
ARG_OF_PERICENTER = 286.9466
MEAN_ANOMALY   = 73.1072

EPHEMERIS_TYPE = 0
CLASSIFICATION_TYPE = U
NORAD_CAT_ID   = 66515
ELEMENT_SET_NO = 999
REV_AT_EPOCH   = 1361
BSTAR          = .34919E-3
MEAN_MOTION_DOT = .37161E-3
MEAN_MOTION_DDOT = 0

CCSDS_OMM_VERS = 2.0
CREATION_DATE  = 
ORIGINATOR     = 

OBJECT_NAME    = SHENZHOU-22
OBJECT_ID      = 2025-272A
CENTER_NAME    = EARTH
REF_FRAME      = TEME
TIME_SYSTEM    = UTC
MEAN_ELEMENT_THEORY = SGP/SGP4

EPOCH          = 2026-02-09T10:04:12.077472
MEAN_MOTION    = 15.59383314
ECCENTRICITY   = .00046969
INCLINATION    = 41.4684
RA_OF_ASC_NODE = 20.0103
ARG_OF_PERICENTER = 39.0629
MEAN_ANOMALY   = 321.0548

EPHEMERIS_TYPE = 0
CLASSIFICATION_TYPE = U
NORAD_CAT_ID   = 66645
ELEMENT_SET_NO = 999
REV_AT_EPOCH   = 26764
BSTAR          = .21981383E-3
MEAN_MOTION_DOT = .17568E-3
MEAN_MOTION_DDOT = 0

CCSDS_OMM_VERS = 2.0
CREATION_DATE  = 
ORIGINATOR     = 

OBJECT_NAME    = SOYUZ-MS 28
OBJECT_ID      = 2025-275A
CENTER_NAME    = EARTH
REF_FRAME      = TEME
TIME_SYSTEM    = UTC
MEAN_ELEMENT_THEORY = SGP/SGP4

EPOCH          = 2026-02-09T19:49:39.868032
MEAN_MOTION    = 15.48509326
ECCENTRICITY   = .00111
INCLINATION    = 51.6312
RA_OF_ASC_NODE = 210.0960
ARG_OF_PERICENTER = 81.8534
MEAN_ANOMALY   = 278.3713

EPHEMERIS_TYPE = 0
CLASSIFICATION_TYPE = U
NORAD_CAT_ID   = 66664
ELEMENT_SET_NO = 999
REV_AT_EPOCH   = 55201
BSTAR          = .17726E-3
MEAN_MOTION_DOT = .9178E-4
MEAN_MOTION_DDOT = 0

CCSDS_OMM_VERS = 2.0
CREATION_DATE  = 
ORIGINATOR     = 

OBJECT_NAME    = DUPLEX
OBJECT_ID      = 1998-067XS
CENTER_NAME    = EARTH
REF_FRAME      = TEME
TIME_SYSTEM    = UTC
MEAN_ELEMENT_THEORY = SGP/SGP4

EPOCH          = 2026-02-09T22:56:26.429280
MEAN_MOTION    = 15.54274591
ECCENTRICITY   = .0001364
INCLINATION    = 51.6289
RA_OF_ASC_NODE = 207.9654
ARG_OF_PERICENTER = 79.6140
MEAN_ANOMALY   = 280.5004

EPHEMERIS_TYPE = 0
CLASSIFICATION_TYPE = U
NORAD_CAT_ID   = 66906
ELEMENT_SET_NO = 999
REV_AT_EPOCH   = 1081
BSTAR          = .50675E-3
MEAN_MOTION_DOT = .33386E-3
MEAN_MOTION_DDOT = 0

CCSDS_OMM_VERS = 2.0
CREATION_DATE  = 
ORIGINATOR     = 

OBJECT_NAME    = ISS OBJECT XT
OBJECT_ID      = 1998-067XT
CENTER_NAME    = EARTH
REF_FRAME      = TEME
TIME_SYSTEM    = UTC
MEAN_ELEMENT_THEORY = SGP/SGP4

EPOCH          = 2026-02-09T16:21:55.104192
MEAN_MOTION    = 15.61838128
ECCENTRICITY   = .00018038
INCLINATION    = 51.6269
RA_OF_ASC_NODE = 207.6344
ARG_OF_PERICENTER = 243.6118
MEAN_ANOMALY   = 116.4691

EPHEMERIS_TYPE = 0
CLASSIFICATION_TYPE = U
NORAD_CAT_ID   = 66907
ELEMENT_SET_NO = 999
REV_AT_EPOCH   = 1079
BSTAR          = .11887875E-2
MEAN_MOTION_DOT = .10604E-2
MEAN_MOTION_DDOT = 0

CCSDS_OMM_VERS = 2.0
CREATION_DATE  = 
ORIGINATOR     = 

OBJECT_NAME    = ISS OBJECT XU
OBJECT_ID      = 1998-067XU
CENTER_NAME    = EARTH
REF_FRAME      = TEME
TIME_SYSTEM    = UTC
MEAN_ELEMENT_THEORY = SGP/SGP4

EPOCH          = 2026-02-09T16:21:03.782592
MEAN_MOTION    = 15.61865115
ECCENTRICITY   = .00016352
INCLINATION    = 51.6265
RA_OF_ASC_NODE = 207.6278
ARG_OF_PERICENTER = 246.4379
MEAN_ANOMALY   = 113.6443

EPHEMERIS_TYPE = 0
CLASSIFICATION_TYPE = U
NORAD_CAT_ID   = 66908
ELEMENT_SET_NO = 999
REV_AT_EPOCH   = 1079
BSTAR          = .12071838E-2
MEAN_MOTION_DOT = .107825E-2
MEAN_MOTION_DDOT = 0

